{
  "type": "FeatureCollection",
  "features": [
    {
      "type": "Feature",
      "properties": {
        "id": "JWC_PERSIAN_GULF",
        "name": "Persian Gulf (Iran Waters)",
        "description": "JWC Listed Area - Persian Gulf, Iranian territorial waters and adjacent areas",
        "riskLevel": "HIGH",
        "awrpRange": "0.01%-0.25%"
      },
      "geometry": {
        "type": "Polygon",
        "coordinates": [[
          [50.0, 24.5], [50.0, 27.0], [51.0, 27.5], [52.5, 27.2],
          [54.0, 26.8], [55.5, 26.5], [56.5, 26.2], [57.0, 25.5],
          [56.5, 25.0], [56.0, 24.5], [55.0, 24.0], [54.0, 24.2],
          [53.0, 24.3], [52.0, 24.5], [51.0, 24.5], [50.0, 24.5]
        ]]
      }
    },
    {
      "type": "Feature",
      "properties": {
        "id": "JWC_GULF_OF_OMAN",
        "name": "Gulf of Oman",
        "description": "JWC Listed Area - Gulf of Oman, approaches to Strait of Hormuz",
        "riskLevel": "HIGH",
        "awrpRange": "0.01%-0.15%"
      },
      "geometry": {
        "type": "Polygon",
        "coordinates": [[
          [56.5, 26.2], [57.0, 25.5], [58.0, 25.0], [59.5, 24.5],
          [61.0, 24.0], [62.0, 23.0], [62.0, 22.0], [60.0, 22.5],
          [58.0, 23.5], [57.0, 24.0], [56.0, 24.5], [56.5, 26.2]
        ]]
      }
    },
    {
      "type": "Feature",
      "properties": {
        "id": "JWC_RED_SEA_SOUTH",
        "name": "Southern Red Sea",
        "description": "JWC Listed Area - Red Sea south of approximately 15°N",
        "riskLevel": "CRITICAL",
        "awrpRange": "0.05%-0.50%"
      },
      "geometry": {
        "type": "Polygon",
        "coordinates": [[
          [36.5, 15.0], [36.5, 19.5], [38.0, 21.0], [40.0, 20.0],
          [41.5, 18.0], [42.0, 16.5], [43.0, 15.0], [43.5, 13.5],
          [43.5, 12.5], [43.0, 12.0], [42.5, 12.5], [42.0, 13.0],
          [41.0, 13.0], [39.5, 14.0], [38.0, 14.5], [36.5, 15.0]
        ]]
      }
    },
    {
      "type": "Feature",
      "properties": {
        "id": "JWC_BAB_EL_MANDEB",
        "name": "Bab el-Mandeb",
        "description": "JWC Listed Area - Bab el-Mandeb strait and approaches",
        "riskLevel": "CRITICAL",
        "awrpRange": "0.10%-0.50%"
      },
      "geometry": {
        "type": "Polygon",
        "coordinates": [[
          [42.5, 12.5], [43.5, 12.5], [44.0, 12.0], [44.5, 11.5],
          [44.0, 11.0], [43.5, 11.0], [43.0, 11.5], [42.5, 12.0],
          [42.5, 12.5]
        ]]
      }
    },
    {
      "type": "Feature",
      "properties": {
        "id": "JWC_GULF_OF_ADEN",
        "name": "Gulf of Aden",
        "description": "JWC Listed Area - Gulf of Aden, piracy and Houthi missile range",
        "riskLevel": "HIGH",
        "awrpRange": "0.05%-0.35%"
      },
      "geometry": {
        "type": "Polygon",
        "coordinates": [[
          [43.0, 11.5], [44.5, 11.5], [46.0, 11.0], [48.0, 11.5],
          [50.0, 12.0], [51.0, 12.5], [51.5, 11.5], [51.0, 10.5],
          [49.0, 10.0], [47.0, 10.5], [45.0, 10.5], [43.5, 11.0],
          [43.0, 11.5]
        ]]
      }
    },
    {
      "type": "Feature",
      "properties": {
        "id": "JWC_ARABIAN_SEA",
        "name": "Arabian Sea (Yemen Extended Range)",
        "description": "JWC Listed Area - Arabian Sea, extended Houthi strike range",
        "riskLevel": "ELEVATED",
        "awrpRange": "0.01%-0.10%"
      },
      "geometry": {
        "type": "Polygon",
        "coordinates": [[
          [51.0, 12.5], [55.0, 15.0], [58.0, 17.0], [62.0, 22.0],
          [65.0, 20.0], [68.0, 17.0], [65.0, 12.0], [60.0, 10.0],
          [55.0, 10.0], [51.5, 11.5], [51.0, 12.5]
        ]]
      }
    },
    {
      "type": "Feature",
      "properties": {
        "id": "JWC_SOMALI_COAST",
        "name": "Somali Coast",
        "description": "JWC Listed Area - Somali coast and offshore waters, piracy risk",
        "riskLevel": "HIGH",
        "awrpRange": "0.05%-0.25%"
      },
      "geometry": {
        "type": "Polygon",
        "coordinates": [[
          [43.0, 0.0], [43.0, 5.0], [44.0, 8.0], [45.0, 10.5],
          [48.0, 10.0], [51.0, 10.5], [55.0, 10.0], [55.0, 5.0],
          [52.0, 2.0], [48.0, 0.0], [45.0, -1.0], [43.0, 0.0]
        ]]
      }
    }
  ]
}
